COSMOS 2058             
1 20465U 90010A   26069.44264957  .00005334  00000+0  31463-3 0  9995
2 20465  82.4668  46.6861 0009254 341.8734  18.2164 15.11330737942350
SL-14 R/B               
1 20466U 90010B   26069.49625655  .00000510  00000+0  58907-4 0  9991
2 20466  82.4987 266.6309 0018482 299.4890  60.4481 14.83569565928604
SL-14 R/B               
1 20511U 90018B   26069.51487772  .00000672  00000+0  81279-4 0  9996
2 20511  82.5204 222.3181 0017675  89.5361 270.7879 14.82146009922704
HST                     
1 20580U 90037B   26069.20376849  .00009369  00000+0  31039-3 0  9991
2 20580  28.4717  36.4910 0001862 130.7593 229.3165 15.29493470773395
SL-16 R/B               
1 20625U 90046B   26069.05064876 -.00000229  00000+0 -93426-4 0  9995
2 20625  70.9987 297.1567 0016218 299.1265  60.8233 14.15012282848442
COSMOS 2084             
1 20663U 90055A   26069.45251879  .00003184  00000+0  23262-3 0  9993
2 20663  62.7921 332.9767 0016954 190.3335 169.7419 15.05657673936439
SL-6 R/B(2)             
1 20666U 90055D   26069.50270738  .00002620  00000+0  20406-3 0  9998
2 20666  62.7824 251.0854 0024843 347.1642  12.8822 15.03599210938316
SL-8 R/B                
1 20775U 90078B   26069.51635855  .00018470  00000+0  54407-3 0  9998
2 20775  82.9008 250.5673 0362046  11.2174 349.6841 14.89092727809422
SL-8 R/B                
1 21088U 91006B   26069.42515612  .00000080  00000+0  65263-4 0  9997
2 21088  82.9466 169.4993 0023037  36.3190  33.8205 13.77494337764178
OKEAN-3                 
1 21397U 91039A   26069.14448525  .00004635  00000+0  32585-3 0  9993
2 21397  82.5191 336.4029 0013917 336.6291  23.4302 15.04809379865108
COSMOS 2151             
1 21422U 91042A   26069.55049406  .00001885  00000+0  14880-3 0  9998
2 21422  82.4931  82.8456 0013976  61.2689 298.9937 15.00107530863322
SL-14 R/B               
1 21423U 91042B   26069.50052547  .00000648  00000+0  79019-4 0  9996
2 21423  82.4925 219.4219 0015825 235.7847 124.1868 14.81830635853194
