CCSDS_OMM_VERS = 2.0
CREATION_DATE  = 
ORIGINATOR     = 

OBJECT_NAME    = COSMOS 2058
OBJECT_ID      = 1990-010A
CENTER_NAME    = EARTH
REF_FRAME      = TEME
TIME_SYSTEM    = UTC
MEAN_ELEMENT_THEORY = SGP/SGP4

EPOCH          = 2026-03-10T10:37:24.922848
MEAN_MOTION    = 15.11330737
ECCENTRICITY   = .0009254
INCLINATION    = 82.4668
RA_OF_ASC_NODE = 46.6861
ARG_OF_PERICENTER = 341.8734
MEAN_ANOMALY   = 18.2164

EPHEMERIS_TYPE = 0
CLASSIFICATION_TYPE = U
NORAD_CAT_ID   = 20465
ELEMENT_SET_NO = 999
REV_AT_EPOCH   = 94235
BSTAR          = .31463E-3
MEAN_MOTION_DOT = .5334E-4
MEAN_MOTION_DDOT = 0

CCSDS_OMM_VERS = 2.0
CREATION_DATE  = 
ORIGINATOR     = 

OBJECT_NAME    = SL-14 R/B
OBJECT_ID      = 1990-010B
CENTER_NAME    = EARTH
REF_FRAME      = TEME
TIME_SYSTEM    = UTC
MEAN_ELEMENT_THEORY = SGP/SGP4

EPOCH          = 2026-03-10T11:54:36.565920
MEAN_MOTION    = 14.83569565
ECCENTRICITY   = .0018482
INCLINATION    = 82.4987
RA_OF_ASC_NODE = 266.6309
ARG_OF_PERICENTER = 299.4890
MEAN_ANOMALY   = 60.4481

EPHEMERIS_TYPE = 0
CLASSIFICATION_TYPE = U
NORAD_CAT_ID   = 20466
ELEMENT_SET_NO = 999
REV_AT_EPOCH   = 92860
BSTAR          = .58907E-4
MEAN_MOTION_DOT = .51E-5
MEAN_MOTION_DDOT = 0

CCSDS_OMM_VERS = 2.0
CREATION_DATE  = 
ORIGINATOR     = 

OBJECT_NAME    = SL-14 R/B
OBJECT_ID      = 1990-018B
CENTER_NAME    = EARTH
REF_FRAME      = TEME
TIME_SYSTEM    = UTC
MEAN_ELEMENT_THEORY = SGP/SGP4

EPOCH          = 2026-03-10T12:21:25.435008
MEAN_MOTION    = 14.82146009
ECCENTRICITY   = .0017675
INCLINATION    = 82.5204
RA_OF_ASC_NODE = 222.3181
ARG_OF_PERICENTER = 89.5361
MEAN_ANOMALY   = 270.7879

EPHEMERIS_TYPE = 0
CLASSIFICATION_TYPE = U
NORAD_CAT_ID   = 20511
ELEMENT_SET_NO = 999
REV_AT_EPOCH   = 92270
BSTAR          = .81279E-4
MEAN_MOTION_DOT = .672E-5
MEAN_MOTION_DDOT = 0

CCSDS_OMM_VERS = 2.0
CREATION_DATE  = 
ORIGINATOR     = 

OBJECT_NAME    = HST
OBJECT_ID      = 1990-037B
CENTER_NAME    = EARTH
REF_FRAME      = TEME
TIME_SYSTEM    = UTC
MEAN_ELEMENT_THEORY = SGP/SGP4

EPOCH          = 2026-03-10T04:53:25.597536
MEAN_MOTION    = 15.29493470
ECCENTRICITY   = .00018621
INCLINATION    = 28.4717
RA_OF_ASC_NODE = 36.4910
ARG_OF_PERICENTER = 130.7593
MEAN_ANOMALY   = 229.3165

EPHEMERIS_TYPE = 0
CLASSIFICATION_TYPE = U
NORAD_CAT_ID   = 20580
ELEMENT_SET_NO = 999
REV_AT_EPOCH   = 77339
BSTAR          = .3103929E-3
MEAN_MOTION_DOT = .9369E-4
MEAN_MOTION_DDOT = 0

CCSDS_OMM_VERS = 2.0
CREATION_DATE  = 
ORIGINATOR     = 

OBJECT_NAME    = SL-16 R/B
OBJECT_ID      = 1990-046B
CENTER_NAME    = EARTH
REF_FRAME      = TEME
TIME_SYSTEM    = UTC
MEAN_ELEMENT_THEORY = SGP/SGP4

EPOCH          = 2026-03-10T01:12:56.052864
MEAN_MOTION    = 14.15012282
ECCENTRICITY   = .00162186
INCLINATION    = 70.9987
RA_OF_ASC_NODE = 297.1567
ARG_OF_PERICENTER = 299.1265
MEAN_ANOMALY   = 60.8233

EPHEMERIS_TYPE = 0
CLASSIFICATION_TYPE = U
NORAD_CAT_ID   = 20625
ELEMENT_SET_NO = 999
REV_AT_EPOCH   = 84844
BSTAR          = -.93426244E-4
MEAN_MOTION_DOT = -.229E-5
MEAN_MOTION_DDOT = 0

CCSDS_OMM_VERS = 2.0
CREATION_DATE  = 
ORIGINATOR     = 

OBJECT_NAME    = COSMOS 2084
OBJECT_ID      = 1990-055A
CENTER_NAME    = EARTH
REF_FRAME      = TEME
TIME_SYSTEM    = UTC
MEAN_ELEMENT_THEORY = SGP/SGP4

EPOCH          = 2026-03-10T10:51:37.623456
MEAN_MOTION    = 15.05657673
ECCENTRICITY   = .0016954
INCLINATION    = 62.7921
RA_OF_ASC_NODE = 332.9767
ARG_OF_PERICENTER = 190.3335
MEAN_ANOMALY   = 169.7419

EPHEMERIS_TYPE = 0
CLASSIFICATION_TYPE = U
NORAD_CAT_ID   = 20663
ELEMENT_SET_NO = 999
REV_AT_EPOCH   = 93643
BSTAR          = .23262E-3
MEAN_MOTION_DOT = .3184E-4
MEAN_MOTION_DDOT = 0

CCSDS_OMM_VERS = 2.0
CREATION_DATE  = 
ORIGINATOR     = 

OBJECT_NAME    = SL-6 R/B(2)
OBJECT_ID      = 1990-055D
CENTER_NAME    = EARTH
REF_FRAME      = TEME
TIME_SYSTEM    = UTC
MEAN_ELEMENT_THEORY = SGP/SGP4

EPOCH          = 2026-03-10T12:03:53.917632
MEAN_MOTION    = 15.03599210
ECCENTRICITY   = .0024843
INCLINATION    = 62.7824
RA_OF_ASC_NODE = 251.0854
ARG_OF_PERICENTER = 347.1642
MEAN_ANOMALY   = 12.8822

EPHEMERIS_TYPE = 0
CLASSIFICATION_TYPE = U
NORAD_CAT_ID   = 20666
ELEMENT_SET_NO = 999
REV_AT_EPOCH   = 93831
BSTAR          = .20406E-3
MEAN_MOTION_DOT = .262E-4
MEAN_MOTION_DDOT = 0

CCSDS_OMM_VERS = 2.0
CREATION_DATE  = 
ORIGINATOR     = 

OBJECT_NAME    = SL-8 R/B
OBJECT_ID      = 1990-078B
CENTER_NAME    = EARTH
REF_FRAME      = TEME
TIME_SYSTEM    = UTC
MEAN_ELEMENT_THEORY = SGP/SGP4

EPOCH          = 2026-03-10T12:23:33.378720
MEAN_MOTION    = 14.89092727
ECCENTRICITY   = .0362046
INCLINATION    = 82.9008
RA_OF_ASC_NODE = 250.5673
ARG_OF_PERICENTER = 11.2174
MEAN_ANOMALY   = 349.6841

EPHEMERIS_TYPE = 0
CLASSIFICATION_TYPE = U
NORAD_CAT_ID   = 20775
ELEMENT_SET_NO = 999
REV_AT_EPOCH   = 80942
BSTAR          = .54407E-3
MEAN_MOTION_DOT = .1847E-3
MEAN_MOTION_DDOT = 0

CCSDS_OMM_VERS = 2.0
CREATION_DATE  = 
ORIGINATOR     = 

OBJECT_NAME    = SL-8 R/B
OBJECT_ID      = 1991-006B
CENTER_NAME    = EARTH
REF_FRAME      = TEME
TIME_SYSTEM    = UTC
MEAN_ELEMENT_THEORY = SGP/SGP4

EPOCH          = 2026-03-10T10:12:13.488768
MEAN_MOTION    = 13.77494337
ECCENTRICITY   = .0023037
INCLINATION    = 82.9466
RA_OF_ASC_NODE = 169.4993
ARG_OF_PERICENTER = 36.3190
MEAN_ANOMALY   = 33.8205

EPHEMERIS_TYPE = 0
CLASSIFICATION_TYPE = U
NORAD_CAT_ID   = 21088
ELEMENT_SET_NO = 999
REV_AT_EPOCH   = 76417
BSTAR          = .65263E-4
MEAN_MOTION_DOT = .8E-6
MEAN_MOTION_DDOT = 0

CCSDS_OMM_VERS = 2.0
CREATION_DATE  = 
ORIGINATOR     = 

OBJECT_NAME    = OKEAN-3
OBJECT_ID      = 1991-039A
CENTER_NAME    = EARTH
REF_FRAME      = TEME
TIME_SYSTEM    = UTC
MEAN_ELEMENT_THEORY = SGP/SGP4

EPOCH          = 2026-03-10T03:28:03.525600
MEAN_MOTION    = 15.04809379
ECCENTRICITY   = .00139172
INCLINATION    = 82.5191
RA_OF_ASC_NODE = 336.4029
ARG_OF_PERICENTER = 336.6291
MEAN_ANOMALY   = 23.4302

EPHEMERIS_TYPE = 0
CLASSIFICATION_TYPE = U
NORAD_CAT_ID   = 21397
ELEMENT_SET_NO = 999
REV_AT_EPOCH   = 86510
BSTAR          = .32585043E-3
MEAN_MOTION_DOT = .4635E-4
MEAN_MOTION_DDOT = 0

CCSDS_OMM_VERS = 2.0
CREATION_DATE  = 
ORIGINATOR     = 

OBJECT_NAME    = COSMOS 2151
OBJECT_ID      = 1991-042A
CENTER_NAME    = EARTH
REF_FRAME      = TEME
TIME_SYSTEM    = UTC
MEAN_ELEMENT_THEORY = SGP/SGP4

EPOCH          = 2026-03-10T13:12:42.686784
MEAN_MOTION    = 15.00107530
ECCENTRICITY   = .0013976
INCLINATION    = 82.4931
RA_OF_ASC_NODE = 82.8456
ARG_OF_PERICENTER = 61.2689
MEAN_ANOMALY   = 298.9937

EPHEMERIS_TYPE = 0
CLASSIFICATION_TYPE = U
NORAD_CAT_ID   = 21422
ELEMENT_SET_NO = 999
REV_AT_EPOCH   = 86332
BSTAR          = .1488E-3
MEAN_MOTION_DOT = .1885E-4
MEAN_MOTION_DDOT = 0

CCSDS_OMM_VERS = 2.0
CREATION_DATE  = 
ORIGINATOR     = 

OBJECT_NAME    = SL-14 R/B
OBJECT_ID      = 1991-042B
CENTER_NAME    = EARTH
REF_FRAME      = TEME
TIME_SYSTEM    = UTC
MEAN_ELEMENT_THEORY = SGP/SGP4

EPOCH          = 2026-03-10T12:00:45.400608
MEAN_MOTION    = 14.81830635
ECCENTRICITY   = .0015825
INCLINATION    = 82.4925
RA_OF_ASC_NODE = 219.4219
ARG_OF_PERICENTER = 235.7847
MEAN_ANOMALY   = 124.1868

EPHEMERIS_TYPE = 0
CLASSIFICATION_TYPE = U
NORAD_CAT_ID   = 21423
ELEMENT_SET_NO = 999
REV_AT_EPOCH   = 85319
BSTAR          = .79019E-4
MEAN_MOTION_DOT = .648E-5
MEAN_MOTION_DDOT = 0

